STARLINK-3124
1 19456C 21104BA  21326.07784423 -.00866186  00000-0 -31234-2 0  3261
2 19456  53.2178  91.1546 0026219  65.1807 208.7365 15.88202995    10
